NORAD_CAT_ID,OBJECT_NAME,OBJECT_TYPE,EPOCH,MEAN_MOTION,ECCENTRICITY,INCLINATION,RA_OF_ASC_NODE,ARG_OF_PERICENTER,MEAN_ANOMALY,BSTAR,MEAN_MOTION_DOT,MEAN_MOTION_DDOT,TLE_LINE0,TLE_LINE1,TLE_LINE2,SEMIMAJOR_AXIS,PERIOD,APOGEE,PERIGEE,DECAYED
52541.0,STARLINK-3845,PAYLOAD,2023-10-15 18:14:34,15.08839587,0.000128,53.2157,106.3206,88.682,271.4319,3.9406e-05,3.39e-06,0.0,0 STARLINK-3845,1 52541U 22051J   23288.76011972  .00000339  00000-0  39406-4 0  9994,2 52541  53.2157 106.3206 0001280  88.6820 271.4319 15.08839587 79134,6917.882,95.438,540.632,538.861,0.0
52541.0,STARLINK-3845,PAYLOAD,2023-10-16 05:22:16,15.08840008,0.0001174,53.216,104.2387,90.3962,269.7164,2.4245e-05,9.8e-07,0.0,0 STARLINK-3845,1 52541U 22051J   23289.22379945  .00000098  00000-0  24245-4 0  9990,2 52541  53.2160 104.2387 0001174  90.3962 269.7164 15.08840008 79200,6917.88,95.438,540.558,538.933,0.0
52541.0,STARLINK-3845,PAYLOAD,2023-10-16 16:29:58,15.0883198,0.0001288,53.2159,102.157,90.3879,269.7261,0.00017034,2.424e-05,0.0,0 STARLINK-3845,1 52541U 22051J   23289.68748206  .00002424  00000-0  17034-3 0  9992,2 52541  53.2159 102.1570 0001288  90.3879 269.7261 15.08831980 79344,6917.905,95.438,540.661,538.879,0.0
52541.0,STARLINK-3845,PAYLOAD,2023-10-17 17:56:08,15.08840097,0.0001292,53.2172,97.3998,85.0185,275.0955,0.00010858,1.441e-05,0.0,0 STARLINK-3845,1 52541U 22051J   23290.74731839  .00001441  00000-0  10858-3 0  9990,2 52541  53.2172  97.3998 0001292  85.0185 275.0955 15.08840097 79433,6917.88,95.438,540.639,538.851,0.0
52541.0,STARLINK-3845,PAYLOAD,2023-10-18 11:25:23,15.08838898,0.0001625,53.2158,94.1268,90.125,269.9928,5.52e-05,5.91e-06,0.0,0 STARLINK-3845,1 52541U 22051J   23291.47596074  .00000591  00000-0  55200-4 0  9997,2 52541  53.2158  94.1268 0001625  90.1250 269.9928 15.08838898 79610,6917.884,95.438,540.873,538.625,0.0
52541.0,STARLINK-3845,PAYLOAD,2023-10-18 17:46:55,15.08840788,9.48e-05,53.2163,92.9377,83.1254,276.9846,7.0474e-05,8.34e-06,0.0,0 STARLINK-3845,1 52541U 22051J   23291.74091894  .00000834  00000-0  70474-4 0  9997,2 52541  53.2163  92.9377 0000948  83.1254 276.9846 15.08840788 79580,6917.878,95.438,540.399,539.087,0.0
52541.0,STARLINK-3845,PAYLOAD,2023-10-19 11:16:09,15.08886919,0.0003161,53.2162,89.6675,85.7976,274.3378,-0.00059445,-9.75e-05,0.0,0 STARLINK-3845,1 52541U 22051J   23292.46955286 -.00009750  00000-0 -59445-3 0  9993,2 52541  53.2162  89.6675 0003161  85.7976 274.3378 15.08886919 79760,6917.737,95.435,541.789,537.415,0.0
52541.0,STARLINK-3845,PAYLOAD,2023-10-19 20:48:28,15.08847161,0.0001714,53.2135,87.8837,91.2186,268.9002,0.0001342,1.849e-05,0.0,0 STARLINK-3845,1 52541U 22051J   23292.86699215  .00001849  00000-0  13420-3 0  9996,2 52541  53.2135  87.8837 0001714  91.2186 268.9002 15.08847161 79823,6917.859,95.437,540.909,538.538,0.0
52541.0,STARLINK-3845,PAYLOAD,2023-10-20 11:06:57,15.08855522,8.33e-05,53.2236,85.2097,46.2949,313.8112,-0.00032005,-5.38e-05,0.0,0 STARLINK-3845,1 52541U 22051J   23293.46316388 -.00005380  00000-0 -32005-3 0  9996,2 52541  53.2236  85.2097 0000833  46.2949 313.8112 15.08855522 79915,6917.833,95.437,540.274,539.122,0.0
52541.0,STARLINK-3845,PAYLOAD,2023-10-20 12:42:21,15.08828524,0.0001435,53.2159,84.9102,86.6072,273.5084,-4.5494e-05,-1.012e-05,0.0,0 STARLINK-3845,1 52541U 22051J   23293.52941040 -.00001012  00000-0 -45494-4 0  9997,2 52541  53.2159  84.9102 0001435  86.6072 273.5084 15.08828524 79851,6917.915,95.438,540.773,538.788,0.0
52541.0,STARLINK-3845,PAYLOAD,2023-10-21 12:33:07,15.08844278,0.0001671,53.2159,80.45,89.8715,270.2468,3.8852e-05,3.3e-06,0.0,0 STARLINK-3845,1 52541U 22051J   23294.52300047  .00000330  00000-0  38852-4 0  9994,2 52541  53.2159  80.4500 0001671  89.8715 270.2468 15.08844278 80008,6917.867,95.437,540.888,538.576,0.0
52541.0,STARLINK-3845,PAYLOAD,2023-10-21 18:54:39,15.08854259,0.0001664,53.2158,79.26,87.9399,272.1783,0.00011933,1.612e-05,0.0,0 STARLINK-3845,1 52541U 22051J   23294.78795156  .00001612  00000-0  11933-3 0  9995,2 52541  53.2158  79.2600 0001664  87.9399 272.1783 15.08854259 80116,6917.837,95.437,540.853,538.551,0.0
52541.0,STARLINK-3845,PAYLOAD,2023-10-22 02:51:35,15.0883654,0.0001372,53.2198,77.7719,86.4285,273.6864,3.4292e-05,2.58e-06,0.0,0 STARLINK-3845,1 52541U 22051J   23295.11916428  .00000258  00000-0  34292-4 0  9999,2 52541  53.2198  77.7719 0001372  86.4285 273.6864 15.08836540 80162,6917.891,95.438,540.705,538.807,0.0
52541.0,STARLINK-3845,PAYLOAD,2023-10-22 13:59:18,15.08821803,0.0001423,53.2166,75.6925,92.2221,267.8934,7.1813e-05,8.55e-06,0.0,0 STARLINK-3845,1 52541U 22051J   23295.58285614  .00000855  00000-0  71813-4 0  9999,2 52541  53.2166  75.6925 0001423  92.2221 267.8934 15.08821803 80164,6917.936,95.439,540.785,538.817,0.0
52541.0,STARLINK-3845,PAYLOAD,2023-10-22 17:10:04,15.0883064,0.0001429,53.2161,75.0974,90.1823,269.9332,-7.0195e-06,-4e-06,0.0,0 STARLINK-3845,1 52541U 22051J   23295.71532913 -.00000400  00000-0 -70195-5 0  9992,2 52541  53.2161  75.0974 0001429  90.1823 269.9332 15.08830640 80184,6917.909,95.438,540.763,538.785,0.0
52541.0,STARLINK-3845,PAYLOAD,2023-10-23 15:25:27,15.08846134,0.0001398,53.2163,70.9337,92.2738,267.8414,8.3237e-05,1.037e-05,0.0,0 STARLINK-3845,1 52541U 22051J   23296.64268459  .00001037  00000-0  83237-4 0  9991,2 52541  53.2163  70.9337 0001398  92.2738 267.8414 15.08846134 80392,6917.862,95.437,540.694,538.76,0.0
52541.0,STARLINK-3845,PAYLOAD,2023-10-24 12:05:29,15.08834699,0.0001433,53.2164,67.0682,95.2472,264.8683,0.00018743,2.696e-05,0.0,0 STARLINK-3845,1 52541U 22051J   23297.50381302  .00002696  00000-0  18743-3 0  9991,2 52541  53.2164  67.0682 0001433  95.2472 264.8683 15.08834699 80524,6917.897,95.438,540.753,538.77,0.0
52541.0,STARLINK-3845,PAYLOAD,2023-10-24 15:16:15,15.08837479,0.0001364,53.2174,66.4726,100.5011,259.6135,0.00024634,3.634e-05,0.0,0 STARLINK-3845,1 52541U 22051J   23297.63629170  .00003634  00000-0  24634-3 0  9992,2 52541  53.2174  66.4726 0001364 100.5011 259.6135 15.08837479 80476,6917.888,95.438,540.697,538.809,0.0
52541.0,STARLINK-3845,PAYLOAD,2023-10-25 11:56:17,15.08822583,0.0001415,53.2175,62.6068,110.0659,250.0486,0.00070591,0.00010959,0.0,0 STARLINK-3845,1 52541U 22051J   23298.49742141  .00010959  00000-0  70591-3 0  9992,2 52541  53.2175  62.6068 0001415 110.0659 250.0486 15.08822583 80671,6917.934,95.439,540.778,538.82,0.0
52541.0,STARLINK-3845,PAYLOAD,2023-10-26 13:22:26,15.08840028,0.0001406,53.2189,57.8515,95.3439,264.7714,0.00011324,1.515e-05,0.0,0 STARLINK-3845,1 52541U 22051J   23299.55724960  .00001515  00000-0  11324-3 0  9996,2 52541  53.2189  57.8515 0001406  95.3439 264.7714 15.08840028 80838,6917.88,95.438,540.718,538.773,0.0
52541.0,STARLINK-3845,PAYLOAD,2023-10-27 14:48:35,15.08852719,0.0001472,53.2188,53.0954,95.2607,264.8553,0.00019617,2.837e-05,0.0,0 STARLINK-3845,1 52541U 22051J   23300.61708105  .00002837  00000-0  19617-3 0  9990,2 52541  53.2188  53.0954 0001472  95.2607 264.8553 15.08852719 80923,6917.842,95.437,540.725,538.688,0.0
52541.0,STARLINK-3845,PAYLOAD,2023-10-27 16:23:58,15.08854435,0.0001533,53.2189,52.7976,96.1344,263.9823,0.0002108,3.07e-05,0.0,0 STARLINK-3845,1 52541U 22051J   23300.68331964  .00003070  00000-0  21080-3 0  9999,2 52541  53.2189  52.7976 0001533  96.1344 263.9823 15.08854435 81007,6917.836,95.437,540.762,538.641,0.0
52541.0,STARLINK-3845,PAYLOAD,2023-10-28 00:20:55,15.08841984,0.000168,53.2186,51.308,89.3608,270.7576,5.3479e-05,5.63e-06,0.0,0 STARLINK-3845,1 52541U 22051J   23301.01452547  .00000563  00000-0  53479-4 0  9990,2 52541  53.2186  51.3080 0001680  89.3608 270.7576 15.08841984 81056,6917.874,95.437,540.902,538.577,0.0
52541.0,STARLINK-3845,PAYLOAD,2023-10-28 13:04:01,15.08824495,0.0001599,53.2188,48.9301,85.8376,274.2799,-0.00020033,-3.473e-05,0.0,0 STARLINK-3845,1 52541U 22051J   23301.54445729 -.00003473  00000-0 -20033-3 0  9996,2 52541  53.2188  48.9301 0001599  85.8376 274.2799 15.08824495 81131,6917.928,95.439,540.899,538.687,0.0
52541.0,STARLINK-3845,PAYLOAD,2023-10-28 17:50:10,15.08832006,0.0001627,53.2183,48.0364,84.7731,275.3446,-9.2133e-05,-1.754e-05,0.0,0 STARLINK-3845,1 52541U 22051J   23301.74317489 -.00001754  00000-0 -92133-4 0  9990,2 52541  53.2183  48.0364 0001627  84.7731 275.3446 15.08832006 81094,6917.905,95.438,540.895,538.644,0.0
52541.0,STARLINK-3845,PAYLOAD,2023-10-29 12:54:46,15.08880822,0.0001279,53.218,44.4679,112.8851,247.2277,0.0011017,0.00017309,0.0,0 STARLINK-3845,1 52541U 22051J   23302.53803514  .00017309  00000-0  11017-2 0  9998,2 52541  53.2180  44.4679 0001279 112.8851 247.2277 15.08880822 81289,6917.756,95.435,540.505,538.736,0.0
52541.0,STARLINK-3845,PAYLOAD,2023-10-29 14:30:09,15.08859408,0.0001349,53.2182,44.1709,84.7091,275.4055,0.00060317,9.33e-05,0.0,0 STARLINK-3845,1 52541U 22051J   23302.60428222  .00009330  00000-0  60317-3 0  9998,2 52541  53.2182  44.1709 0001349  84.7091 275.4055 15.08859408 81220,6917.821,95.436,540.619,538.753,0.0
52541.0,STARLINK-3845,PAYLOAD,2023-10-30 11:10:11,15.08837788,0.0001382,53.2186,40.3064,82.217,277.8979,6.4913e-05,7.45e-06,0.0,0 STARLINK-3845,1 52541U 22051J   23303.46541175  .00000745  00000-0  64913-4 0  9994,2 52541  53.2186  40.3064 0001382  82.2170 277.8979 15.08837788 81424,6917.887,95.438,540.708,538.796,0.0
52541.0,STARLINK-3845,PAYLOAD,2023-10-30 12:45:34,15.08837102,0.0001423,53.2187,40.0087,89.936,270.1795,2.3475e-05,8.6e-07,0.0,0 STARLINK-3845,1 52541U 22051J   23303.53165157  .00000086  00000-0  23475-4 0  9990,2 52541  53.2187  40.0087 0001423  89.9360 270.1795 15.08837102 81363,6917.889,95.438,540.739,538.77,0.0
52541.0,STARLINK-3845,PAYLOAD,2023-10-31 12:36:22,15.08838597,0.0001362,53.2176,35.5479,97.5606,262.5541,7.075e-05,8.38e-06,0.0,0 STARLINK-3845,1 52541U 22051J   23304.52525613  .00000838  00000-0  70750-4 0  9990,2 52541  53.2176  35.5479 0001362  97.5606 262.5541 15.08838597 81582,6917.885,95.438,540.692,538.807,0.0
